{
  "type": "FeatureCollection",
  "features": [
    {
      "type": "Feature",
      "properties": {
        "norad_id": 39617,
        "name": "ASTRA 5B (EGNOS/PRN 123)",
        "group": "gnss",
        "lat": 0.0021442692100280118,
        "lon": -176.24096904508897,
        "alt_km": 35781.74731846155,
        "timestamp": "2025-12-06T05:40:09.483262+00:00",
        "meta_object_name": "ASTRA 5B (EGNOS/PRN 123)",
        "meta_object_id": "2014-011B",
        "meta_epoch": "2025-12-05T04:47:38.616864",
        "meta_mean_motion": 1.00268092,
        "meta_eccentricity": 0.00045674,
        "meta_inclination": 0.0497,
        "meta_ra_of_asc_node": 17.4351,
        "meta_arg_of_pericenter": 240.6521,
        "meta_mean_anomaly": 271.598,
        "meta_ephemeris_type": 0,
        "meta_classification_type": "U",
        "meta_norad_cat_id": 39617,
        "meta_element_set_no": 999,
        "meta_rev_at_epoch": 4272,
        "meta_bstar": 0,
        "meta_mean_motion_dot": 1.49e-06,
        "meta_mean_motion_ddot": 0,
        "tle_line1": "1 39617U 14011B   25339.19975251  .00000149  00000+0  00000+0 0  9996",
        "tle_line2": "2 39617   0.0497  17.4351 0004567 240.6521 271.5980  1.00268092 42726"
      },
      "geometry": {
        "type": "Point",
        "coordinates": [
          -176.24096904508897,
          0.0021442692100280118
        ]
      }
    },
    {
      "type": "Feature",
      "properties": {
        "norad_id": 39620,
        "name": "COSMOS 2492 (754)",
        "group": "gnss",
        "lat": 1.2958269120063017,
        "lon": 139.88578885552906,
        "alt_km": 19154.549877623507,
        "timestamp": "2025-12-06T05:40:09.483273+00:00",
        "meta_object_name": "COSMOS 2492 (754)",
        "meta_object_id": "2014-012A",
        "meta_epoch": "2025-12-02T17:14:30.403680",
        "meta_mean_motion": 2.13103072,
        "meta_eccentricity": 0.00141646,
        "meta_inclination": 65.4134,
        "meta_ra_of_asc_node": 320.6107,
        "meta_arg_of_pericenter": 311.0276,
        "meta_mean_anomaly": 48.8557,
        "meta_ephemeris_type": 0,
        "meta_classification_type": "U",
        "meta_norad_cat_id": 39620,
        "meta_element_set_no": 999,
        "meta_rev_at_epoch": 9105,
        "meta_bstar": 0,
        "meta_mean_motion_dot": -3.6e-07,
        "meta_mean_motion_ddot": 0,
        "tle_line1": "1 39620U 14012A   25336.71840745 -.00000036  00000+0  00000+0 0  9991",
        "tle_line2": "2 39620  65.4134 320.6107 0014164 311.0276  48.8557  2.13103072 91051"
      },
      "geometry": {
        "type": "Point",
        "coordinates": [
          139.88578885552906,
          1.2958269120063017
        ]
      }
    },
    {
      "type": "Feature",
      "properties": {
        "norad_id": 39635,
        "name": "IRNSS-1B",
        "group": "gnss",
        "lat": -13.2344929447174,
        "lon": -141.5116083849533,
        "alt_km": 35850.066284291956,
        "timestamp": "2025-12-06T05:40:09.483285+00:00",
        "meta_object_name": "IRNSS-1B",
        "meta_object_id": "2014-017A",
        "meta_epoch": "2025-12-04T19:28:38.496288",
        "meta_mean_motion": 1.00275997,
        "meta_eccentricity": 0.0017633,
        "meta_inclination": 28.8387,
        "meta_ra_of_asc_node": 243.7276,
        "meta_arg_of_pericenter": 183.5453,
        "meta_mean_anomaly": 353.8193,
        "meta_ephemeris_type": 0,
        "meta_classification_type": "U",
        "meta_norad_cat_id": 39635,
        "meta_element_set_no": 999,
        "meta_rev_at_epoch": 4284,
        "meta_bstar": 0,
        "meta_mean_motion_dot": 1.26e-06,
        "meta_mean_motion_ddot": 0,
        "tle_line1": "1 39635U 14017A   25338.81155667  .00000126  00000+0  00000+0 0  9996",
        "tle_line2": "2 39635  28.8387 243.7276 0017633 183.5453 353.8193  1.00275997 42844"
      },
      "geometry": {
        "type": "Point",
        "coordinates": [
          -141.5116083849533,
          -13.2344929447174
        ]
      }
    },
    {
      "type": "Feature",
      "properties": {
        "norad_id": 39727,
        "name": "LUCH 5V (SDCM/PRN 141)",
        "group": "gnss",
        "lat": -0.3082408902245837,
        "lon": -104.9349062373448,
        "alt_km": 35767.848087306396,
        "timestamp": "2025-12-06T05:40:09.483298+00:00",
        "meta_object_name": "LUCH 5V (SDCM/PRN 141)",
        "meta_object_id": "2014-023A",
        "meta_epoch": "2025-12-05T07:17:57.773760",
        "meta_mean_motion": 1.00271195,
        "meta_eccentricity": 0.0004578,
        "meta_inclination": 4.6497,
        "meta_ra_of_asc_node": 71.6022,
        "meta_arg_of_pericenter": 200.6188,
        "meta_mean_anomaly": 6.4113,
        "meta_ephemeris_type": 0,
        "meta_classification_type": "U",
        "meta_norad_cat_id": 39727,
        "meta_element_set_no": 999,
        "meta_rev_at_epoch": 4241,
        "meta_bstar": 0,
        "meta_mean_motion_dot": -2.6e-06,
        "meta_mean_motion_ddot": 0,
        "tle_line1": "1 39727U 14023A   25339.30414090 -.00000260  00000+0  00000+0 0  9998",
        "tle_line2": "2 39727   4.6497  71.6022 0004578 200.6188   6.4113  1.00271195 42419"
      },
      "geometry": {
        "type": "Point",
        "coordinates": [
          -104.9349062373448,
          -0.3082408902245837
        ]
      }
    },
    {
      "type": "Feature",
      "properties": {
        "norad_id": 39741,
        "name": "GPS BIIF-6  (PRN 06)",
        "group": "gnss",
        "lat": 15.499243196012824,
        "lon": 148.47573962626322,
        "alt_km": 20275.67343511363,
        "timestamp": "2025-12-06T05:40:09.483309+00:00",
        "meta_object_name": "GPS BIIF-6  (PRN 06)",
        "meta_object_id": "2014-026A",
        "meta_epoch": "2025-12-04T12:23:41.363808",
        "meta_mean_motion": 2.0056177,
        "meta_eccentricity": 0.003895,
        "meta_inclination": 56.5867,
        "meta_ra_of_asc_node": 339.0964,
        "meta_arg_of_pericenter": 318.2284,
        "meta_mean_anomaly": 41.4951,
        "meta_ephemeris_type": 0,
        "meta_classification_type": "U",
        "meta_norad_cat_id": 39741,
        "meta_element_set_no": 999,
        "meta_rev_at_epoch": 8463,
        "meta_bstar": 0,
        "meta_mean_motion_dot": -7e-07,
        "meta_mean_motion_ddot": 0,
        "tle_line1": "1 39741U 14026A   25338.51645097 -.00000070  00000+0  00000+0 0  9991",
        "tle_line2": "2 39741  56.5867 339.0964 0038950 318.2284  41.4951  2.00561770 84633"
      },
      "geometry": {
        "type": "Point",
        "coordinates": [
          148.47573962626322,
          15.499243196012824
        ]
      }
    },
    {
      "type": "Feature",
      "properties": {
        "norad_id": 40001,
        "name": "COSMOS 2500 (755)",
        "group": "gnss",
        "lat": 41.2579982409048,
        "lon": -16.001859414089573,
        "alt_km": 19145.713379581703,
        "timestamp": "2025-12-06T05:40:09.483321+00:00",
        "meta_object_name": "COSMOS 2500 (755)",
        "meta_object_id": "2014-032A",
        "meta_epoch": "2025-12-04T07:09:49.504896",
        "meta_mean_motion": 2.13106037,
        "meta_eccentricity": 0.0008267,
        "meta_inclination": 65.3482,
        "meta_ra_of_asc_node": 320.3199,
        "meta_arg_of_pericenter": 219.122,
        "meta_mean_anomaly": 140.8171,
        "meta_ephemeris_type": 0,
        "meta_classification_type": "U",
        "meta_norad_cat_id": 40001,
        "meta_element_set_no": 999,
        "meta_rev_at_epoch": 8930,
        "meta_bstar": 0,
        "meta_mean_motion_dot": -4.5e-07,
        "meta_mean_motion_ddot": 0,
        "tle_line1": "1 40001U 14032A   25338.29848964 -.00000045  00000+0  00000+0 0  9994",
        "tle_line2": "2 40001  65.3482 320.3199 0008267 219.1220 140.8171  2.13106037 89307"
      },
      "geometry": {
        "type": "Point",
        "coordinates": [
          -16.001859414089573,
          41.2579982409048
        ]
      }
    },
    {
      "type": "Feature",
      "properties": {
        "norad_id": 40105,
        "name": "GPS BIIF-7  (PRN 09)",
        "group": "gnss",
        "lat": 54.34581140961391,
        "lon": -159.20096221468046,
        "alt_km": 20093.64785207327,
        "timestamp": "2025-12-06T05:40:09.483332+00:00",
        "meta_object_name": "GPS BIIF-7  (PRN 09)",
        "meta_object_id": "2014-045A",
        "meta_epoch": "2025-12-03T14:34:35.183424",
        "meta_mean_motion": 2.00571854,
        "meta_eccentricity": 0.00329245,
        "meta_inclination": 55.2235,
        "meta_ra_of_asc_node": 96.2633,
        "meta_arg_of_pericenter": 119.6263,
        "meta_mean_anomaly": 240.6737,
        "meta_ephemeris_type": 0,
        "meta_classification_type": "U",
        "meta_norad_cat_id": 40105,
        "meta_element_set_no": 999,
        "meta_rev_at_epoch": 8215,
        "meta_bstar": 0,
        "meta_mean_motion_dot": -7e-08,
        "meta_mean_motion_ddot": 0,
        "tle_line1": "1 40105U 14045A   25337.60735166 -.00000007  00000+0  00000+0 0  9994",
        "tle_line2": "2 40105  55.2235  96.2633 0032924 119.6263 240.6737  2.00571854 82158"
      },
      "geometry": {
        "type": "Point",
        "coordinates": [
          -159.20096221468046,
          54.34581140961391
        ]
      }
    }
  ]
}